IXPE                    
1 49954U 21121A   24243.91667824  .00010024  00000+0  72778-3 0  9996
2 49954   0.2280 198.3965 0009438 311.2343 118.8430 14.99467493149136
